SILVERSAT               
1 66909U 98067XV  26031.82711152  .00092891  00000+0  10749-2 0  9990
2 66909  51.6269 252.0071 0003225 173.2127 186.8911 15.61074846  9413
1998-067XW              
1 66910U 98067XW  26031.90030068  .00072864  00000+0  88156-3 0  9997
2 66910  51.6260 251.7417 0001438 161.7321 198.3724 15.60019583  9425
1998-067XX              
1 66911U 98067XX  26031.86693178  .00089928  00000+0  99904-3 0  9992
2 66911  51.6252 251.5173 0002388 193.4202 166.6729 15.62146385  9414
1998-067XY              
1 66912U 98067XY  26031.82136555  .00056292  00000+0  75096-3 0  9994
2 66912  51.6284 252.7194 0002196 130.1632 229.9552 15.57537864  9392
